CCSDS_OMM_VERS = 2.0
CREATION_DATE  = 
ORIGINATOR     = 

OBJECT_NAME    = STARLINK-35893
OBJECT_ID      = 2025-268J
CENTER_NAME    = EARTH
REF_FRAME      = TEME
TIME_SYSTEM    = UTC
MEAN_ELEMENT_THEORY = SGP/SGP4

EPOCH          = 2025-12-22T14:00:01.999872
MEAN_MOTION    = 15.56368606
ECCENTRICITY   = .00016547
INCLINATION    = 43.0006
RA_OF_ASC_NODE = 63.4698
ARG_OF_PERICENTER = 281.0360
MEAN_ANOMALY   = 179.6002

EPHEMERIS_TYPE = 0
CLASSIFICATION_TYPE = U
NORAD_CAT_ID   = 66565
ELEMENT_SET_NO = 999
REV_AT_EPOCH   = 609
BSTAR          = .46989363E-3
MEAN_MOTION_DOT = .33811E-3
MEAN_MOTION_DDOT = 0

CCSDS_OMM_VERS = 2.0
CREATION_DATE  = 
ORIGINATOR     = 

OBJECT_NAME    = STARLINK-35871
OBJECT_ID      = 2025-268K
CENTER_NAME    = EARTH
REF_FRAME      = TEME
TIME_SYSTEM    = UTC
MEAN_ELEMENT_THEORY = SGP/SGP4

EPOCH          = 2025-12-22T14:00:01.999872
MEAN_MOTION    = 15.56369876
ECCENTRICITY   = .0001517
INCLINATION    = 43.0007
RA_OF_ASC_NODE = 63.4648
ARG_OF_PERICENTER = 274.4315
MEAN_ANOMALY   = 188.1255

EPHEMERIS_TYPE = 0
CLASSIFICATION_TYPE = U
NORAD_CAT_ID   = 66566
ELEMENT_SET_NO = 999
REV_AT_EPOCH   = 609
BSTAR          = .35125745E-3
MEAN_MOTION_DOT = .25155E-3
MEAN_MOTION_DDOT = 0

CCSDS_OMM_VERS = 2.0
CREATION_DATE  = 
ORIGINATOR     = 

OBJECT_NAME    = STARLINK-35825
OBJECT_ID      = 2025-268L
CENTER_NAME    = EARTH
REF_FRAME      = TEME
TIME_SYSTEM    = UTC
MEAN_ELEMENT_THEORY = SGP/SGP4

EPOCH          = 2025-12-22T14:00:01.999872
MEAN_MOTION    = 15.56364843
ECCENTRICITY   = .00014571
INCLINATION    = 43.0007
RA_OF_ASC_NODE = 63.4600
ARG_OF_PERICENTER = 284.1007
MEAN_ANOMALY   = 180.3809

EPHEMERIS_TYPE = 0
CLASSIFICATION_TYPE = U
NORAD_CAT_ID   = 66567
ELEMENT_SET_NO = 999
REV_AT_EPOCH   = 609
BSTAR          = .36193735E-3
MEAN_MOTION_DOT = .25929E-3
MEAN_MOTION_DDOT = 0

CCSDS_OMM_VERS = 2.0
CREATION_DATE  = 
ORIGINATOR     = 

OBJECT_NAME    = STARLINK-35803
OBJECT_ID      = 2025-268M
CENTER_NAME    = EARTH
REF_FRAME      = TEME
TIME_SYSTEM    = UTC
MEAN_ELEMENT_THEORY = SGP/SGP4

EPOCH          = 2025-12-22T14:00:01.999872
MEAN_MOTION    = 15.56032835
ECCENTRICITY   = .00015423
INCLINATION    = 43.0007
RA_OF_ASC_NODE = 63.5100
ARG_OF_PERICENTER = 265.4207
MEAN_ANOMALY   = 178.1601

EPHEMERIS_TYPE = 0
CLASSIFICATION_TYPE = U
NORAD_CAT_ID   = 66568
ELEMENT_SET_NO = 999
REV_AT_EPOCH   = 609
BSTAR          = .53300621E-2
MEAN_MOTION_DOT = .400783E-2
MEAN_MOTION_DDOT = 0

CCSDS_OMM_VERS = 2.0
CREATION_DATE  = 
ORIGINATOR     = 

OBJECT_NAME    = STARLINK-35835
OBJECT_ID      = 2025-268N
CENTER_NAME    = EARTH
REF_FRAME      = TEME
TIME_SYSTEM    = UTC
MEAN_ELEMENT_THEORY = SGP/SGP4

EPOCH          = 2025-12-22T14:00:01.999872
MEAN_MOTION    = 15.56373210
ECCENTRICITY   = .00015626
INCLINATION    = 43.0007
RA_OF_ASC_NODE = 63.4501
ARG_OF_PERICENTER = 276.8872
MEAN_ANOMALY   = 191.4197

EPHEMERIS_TYPE = 0
CLASSIFICATION_TYPE = U
NORAD_CAT_ID   = 66569
ELEMENT_SET_NO = 999
REV_AT_EPOCH   = 609
BSTAR          = .3023512E-3
MEAN_MOTION_DOT = .21594E-3
MEAN_MOTION_DDOT = 0

CCSDS_OMM_VERS = 2.0
CREATION_DATE  = 
ORIGINATOR     = 

OBJECT_NAME    = STARLINK-35834
OBJECT_ID      = 2025-268P
CENTER_NAME    = EARTH
REF_FRAME      = TEME
TIME_SYSTEM    = UTC
MEAN_ELEMENT_THEORY = SGP/SGP4

EPOCH          = 2025-12-22T14:00:01.999872
MEAN_MOTION    = 15.50644432
ECCENTRICITY   = .00014112
INCLINATION    = 43.0000
RA_OF_ASC_NODE = 63.4773
ARG_OF_PERICENTER = 285.4866
MEAN_ANOMALY   = 171.4908

EPHEMERIS_TYPE = 0
CLASSIFICATION_TYPE = U
NORAD_CAT_ID   = 66570
ELEMENT_SET_NO = 999
REV_AT_EPOCH   = 609
BSTAR          = -.38532989E-1
MEAN_MOTION_DOT = -.2021572E-1
MEAN_MOTION_DDOT = 0

CCSDS_OMM_VERS = 2.0
CREATION_DATE  = 
ORIGINATOR     = 

OBJECT_NAME    = STARLINK-35836
OBJECT_ID      = 2025-268Q
CENTER_NAME    = EARTH
REF_FRAME      = TEME
TIME_SYSTEM    = UTC
MEAN_ELEMENT_THEORY = SGP/SGP4

EPOCH          = 2025-12-22T14:00:01.999872
MEAN_MOTION    = 15.51485128
ECCENTRICITY   = .0001334
INCLINATION    = 43.0003
RA_OF_ASC_NODE = 63.4638
ARG_OF_PERICENTER = 290.6759
MEAN_ANOMALY   = 171.7871

EPHEMERIS_TYPE = 0
CLASSIFICATION_TYPE = U
NORAD_CAT_ID   = 66571
ELEMENT_SET_NO = 999
REV_AT_EPOCH   = 610
BSTAR          = -.37522254E-1
MEAN_MOTION_DOT = -.2028297E-1
MEAN_MOTION_DDOT = 0

CCSDS_OMM_VERS = 2.0
CREATION_DATE  = 
ORIGINATOR     = 

OBJECT_NAME    = STARLINK-35870
OBJECT_ID      = 2025-268R
CENTER_NAME    = EARTH
REF_FRAME      = TEME
TIME_SYSTEM    = UTC
MEAN_ELEMENT_THEORY = SGP/SGP4

EPOCH          = 2025-12-22T14:00:01.999872
MEAN_MOTION    = 15.52941663
ECCENTRICITY   = .00013403
INCLINATION    = 43.0005
RA_OF_ASC_NODE = 63.4483
ARG_OF_PERICENTER = 284.3755
MEAN_ANOMALY   = 184.8626

EPHEMERIS_TYPE = 0
CLASSIFICATION_TYPE = U
NORAD_CAT_ID   = 66572
ELEMENT_SET_NO = 999
REV_AT_EPOCH   = 615
BSTAR          = -.35805526E-1
MEAN_MOTION_DOT = -.2039492E-1
MEAN_MOTION_DDOT = 0

CCSDS_OMM_VERS = 2.0
CREATION_DATE  = 
ORIGINATOR     = 

OBJECT_NAME    = STARLINK-35650
OBJECT_ID      = 2025-268S
CENTER_NAME    = EARTH
REF_FRAME      = TEME
TIME_SYSTEM    = UTC
MEAN_ELEMENT_THEORY = SGP/SGP4

EPOCH          = 2025-12-22T14:00:01.999872
MEAN_MOTION    = 15.53589096
ECCENTRICITY   = .00016835
INCLINATION    = 43.0005
RA_OF_ASC_NODE = 63.4372
ARG_OF_PERICENTER = 253.3629
MEAN_ANOMALY   = 220.0603

EPHEMERIS_TYPE = 0
CLASSIFICATION_TYPE = U
NORAD_CAT_ID   = 66573
ELEMENT_SET_NO = 999
REV_AT_EPOCH   = 609
BSTAR          = -.32860389E-1
MEAN_MOTION_DOT = -.1895278E-1
MEAN_MOTION_DDOT = 0

CCSDS_OMM_VERS = 2.0
CREATION_DATE  = 
ORIGINATOR     = 

OBJECT_NAME    = STARLINK-35812
OBJECT_ID      = 2025-268T
CENTER_NAME    = EARTH
REF_FRAME      = TEME
TIME_SYSTEM    = UTC
MEAN_ELEMENT_THEORY = SGP/SGP4

EPOCH          = 2025-12-22T14:00:01.999872
MEAN_MOTION    = 15.54617128
ECCENTRICITY   = .00011513
INCLINATION    = 43.0006
RA_OF_ASC_NODE = 63.4288
ARG_OF_PERICENTER = 283.1213
MEAN_ANOMALY   = 193.4717

EPHEMERIS_TYPE = 0
CLASSIFICATION_TYPE = U
NORAD_CAT_ID   = 66574
ELEMENT_SET_NO = 999
REV_AT_EPOCH   = 609
BSTAR          = -.33911372E-1
MEAN_MOTION_DOT = -.2052781E-1
MEAN_MOTION_DDOT = 0

CCSDS_OMM_VERS = 2.0
CREATION_DATE  = 
ORIGINATOR     = 

OBJECT_NAME    = STARLINK-35810
OBJECT_ID      = 2025-268U
CENTER_NAME    = EARTH
REF_FRAME      = TEME
TIME_SYSTEM    = UTC
MEAN_ELEMENT_THEORY = SGP/SGP4

EPOCH          = 2025-12-22T14:00:01.999872
MEAN_MOTION    = 15.55461880
ECCENTRICITY   = .00012043
INCLINATION    = 43.0005
RA_OF_ASC_NODE = 63.4216
ARG_OF_PERICENTER = 272.1320
MEAN_ANOMALY   = 207.2847

EPHEMERIS_TYPE = 0
CLASSIFICATION_TYPE = U
NORAD_CAT_ID   = 66575
ELEMENT_SET_NO = 999
REV_AT_EPOCH   = 609
BSTAR          = -.32949518E-1
MEAN_MOTION_DOT = -.2057644E-1
MEAN_MOTION_DDOT = 0

CCSDS_OMM_VERS = 2.0
CREATION_DATE  = 
ORIGINATOR     = 

OBJECT_NAME    = STARLINK-35814
OBJECT_ID      = 2025-268V
CENTER_NAME    = EARTH
REF_FRAME      = TEME
TIME_SYSTEM    = UTC
MEAN_ELEMENT_THEORY = SGP/SGP4

EPOCH          = 2025-12-22T14:00:01.999872
MEAN_MOTION    = 15.56274806
ECCENTRICITY   = .00014983
INCLINATION    = 43.0007
RA_OF_ASC_NODE = 63.4162
ARG_OF_PERICENTER = 269.0532
MEAN_ANOMALY   = 212.6424

EPHEMERIS_TYPE = 0
CLASSIFICATION_TYPE = U
NORAD_CAT_ID   = 66576
ELEMENT_SET_NO = 999
REV_AT_EPOCH   = 609
BSTAR          = -.31396152E-1
MEAN_MOTION_DOT = -.202524E-1
MEAN_MOTION_DDOT = 0

