STARLINK-35893          
1 66565U 25268J   25356.58335648  .00033811  00000+0  46989-3 0  9998
2 66565  43.0006  63.4698 0001654 281.0360 179.6002 15.56368606  6091
STARLINK-35871          
1 66566U 25268K   25356.58335648  .00025155  00000+0  35126-3 0  9992
2 66566  43.0007  63.4648 0001517 274.4315 188.1255 15.56369876  6097
STARLINK-35825          
1 66567U 25268L   25356.58335648  .00025929  00000+0  36194-3 0  9998
2 66567  43.0007  63.4600 0001457 284.1007 180.3809 15.56364843  6093
STARLINK-35803          
1 66568U 25268M   25356.58335648  .00400783  00000+0  53301-2 0  9992
2 66568  43.0007  63.5100 0001542 265.4207 178.1601 15.56032835  6097
STARLINK-35835          
1 66569U 25268N   25356.58335648  .00021594  00000+0  30235-3 0  9994
2 66569  43.0007  63.4501 0001562 276.8872 191.4197 15.56373210  6091
STARLINK-35834          
1 66570U 25268P   25356.58335648 -.02021572  00000+0 -38533-1 0  9993
2 66570  43.0000  63.4773 0001411 285.4866 171.4908 15.50644432  6098
STARLINK-35836          
1 66571U 25268Q   25356.58335648 -.02028297  00000+0 -37522-1 0  9992
2 66571  43.0003  63.4638 0001334 290.6759 171.7871 15.51485128  6105
STARLINK-35870          
1 66572U 25268R   25356.58335648 -.02039492  00000+0 -35806-1 0  9995
2 66572  43.0005  63.4483 0001340 284.3755 184.8626 15.52941663  6159
STARLINK-35650          
1 66573U 25268S   25356.58335648 -.01895278  00000+0 -32860-1 0  9994
2 66573  43.0005  63.4372 0001683 253.3629 220.0603 15.53589096  6093
STARLINK-35812          
1 66574U 25268T   25356.58335648 -.02052781  00000+0 -33911-1 0  9998
2 66574  43.0006  63.4288 0001151 283.1213 193.4717 15.54617128  6099
STARLINK-35810          
1 66575U 25268U   25356.58335648 -.02057644  00000+0 -32950-1 0  9994
2 66575  43.0005  63.4216 0001204 272.1320 207.2847 15.55461880  6097
STARLINK-35814          
1 66576U 25268V   25356.58335648 -.02025240  00000+0 -31396-1 0  9995
2 66576  43.0007  63.4162 0001498 269.0532 212.6424 15.56274806  6097
